{"fetched_at":"2026-03-29T16:36:15Z","count":15609,"tles":[{"name":"STARLINK-6097","line1":"1 57105U 23090E   26087.92638147 -.00001978  00000+0 -13136-3 0  9998","line2":"2 57105  43.0021 170.4218 0001086 275.0142  85.0576 15.02546485153302","category":"Starlink"}]}