{
  "norad_id": 57105,
  "name": "STARLINK-6097",
  "history": [
    {
      "epoch": "2026-03-28T22:13:59.359008",
      "apogee_km": 559.800638920974,
      "perigee_km": 558.293882499549,
      "latitude_deg": 5.717425984429701,
      "longitude_deg": -20.56737887999043,
      "semi_major_axis_km": 6937.184260710262,
      "eccentricity": 0.0001086,
      "inclination_deg": 43.0021,
      "raan_deg": 170.4218,
      "arg_perigee_deg": 275.0142,
      "mean_anomaly_deg": 85.0576,
      "mean_motion_rev_day": 15.02546485
    }
  ]
}